STARLINK-11626 [DTC]    
1 63556U 25075J   26196.10638064  .00159077  00000+0  12116-2 0  9997
2 63556  42.9998 106.1613 0001591 290.7847  69.2850 15.70997772 73283
STARLINK-11668 [DTC]    
1 63557U 25075K   26196.16465084  .00136641  00000+0  10504-2 0  9995
2 63557  43.0003 105.7372 0001281 273.0599  87.0122 15.70853029 73291
STARLINK-11657 [DTC]    
1 63558U 25075L   26196.16670139 -.00001836  00000+0 -10822-4 0  9999
2 63558  43.0015 105.5007 0001596 262.5578 199.3102 15.70821901  5976
STARLINK-11606 [DTC]    
1 63559U 25075M   26196.11686001  .00119087  00000+0  91629-3 0  9999
2 63559  43.0014 105.3487 0003242 253.3577 106.6935 15.70888996 73295
STARLINK-11592 [DTC]    
1 63560U 25075N   26196.00562257  .00070371  00000+0  54703-3 0  9999
2 63560  43.0005 106.2399 0002101 213.7908 146.2826 15.70849601 73277
STARLINK-32953          
1 63561U 25075P   26196.18199323  .00006914  00000+0  26049-3 0  9993
2 63561  43.0069 270.8063 0002570 288.4867  71.5705 15.27589489 71425
STARLINK-32951          
1 63562U 25075Q   26195.52426236  .00006418  00000+0  24258-3 0  9996
2 63562  42.9973 274.4366 0001626 276.6607  83.4059 15.27576462 71337
STARLINK-32958          
1 63563U 25075R   26195.51398858  .00002321  00000+0  93862-4 0  9991
2 63563  42.9969 274.3851 0001289 269.6700  90.4004 15.27576104 71322
STARLINK-32928          
1 63564U 25075S   26196.21653955  .00010192  00000+0  37939-3 0  9999
2 63564  42.9992 270.2026 0001631 273.4572  86.6093 15.27580343 71447
STARLINK-32687          
1 63565U 25075T   26195.52298197  .00004642  00000+0  17813-3 0  9998
2 63565  42.9986 274.4260 0002118 281.2052  78.8561 15.27576026 71332
STARLINK-32950          
1 63566U 25075U   26196.21139067  .00008876  00000+0  33166-3 0  9998
2 63566  43.0034 270.1063 0002848 296.8486  63.2075 15.27582121 71438
STARLINK-32954          
1 63567U 25075V   26196.22424343  .00009141  00000+0  34128-3 0  9999
2 63567  42.9982 270.2284 0001179 266.6272  93.4445 15.27580347 71433
STARLINK-32940          
1 63568U 25075W   26195.51012778 -.00001158  00000+0 -32572-4 0  9990
2 63568  42.9935 274.3247 0001208 264.8280  95.2433 15.27576070 71321
STARLINK-32959          
1 63569U 25076A   26195.85600627  .00011465  00000+0  42552-3 0  9993
2 63569  43.0008 327.5077 0001534 280.9006  79.1673 15.27577331 71232
STARLINK-32956          
1 63570U 25076B   26195.40585787  .00012101  00000+0  44843-3 0  9998
2 63570  42.9951 329.2740 0002799 154.3889 205.7102 15.27587387 71160
STARLINK-33722          
1 63571U 25076C   26195.42046749  .00010741  00000+0  39916-3 0  9994
2 63571  43.0007 325.8668 0001283 249.8669 110.2045 15.27588876 71204
STARLINK-33739          
1 63572U 25076D   26195.38977287  .00008886  00000+0  33185-3 0  9999
2 63572  42.9951 326.4940 0004610 140.8016 219.3170 15.27594396 71208
STARLINK-33683          
1 63573U 25076E   26195.38849373  .00016116  00000+0  59374-3 0  9997
2 63573  43.0019 326.4922 0001250 257.6256 102.4456 15.27587680 71203
STARLINK-33732          
1 63575U 25076G   26195.70257775  .00012063  00000+0  44684-3 0  9999
2 63575  43.0012 324.5510 0001626 272.6107  87.4558 15.27604075 71257
STARLINK-33800          
1 63576U 25076H   26195.34994586  .00012159  00000+0  45050-3 0  9992
2 63576  43.0045 326.2004 0001236 266.7881  93.2829 15.27590106 71201
STARLINK-33632          
1 63577U 25076J   26195.38592219  .00007935  00000+0  29752-3 0  9991
2 63577  42.9982 326.4674 0001168 175.7564 184.3297 15.27583903 71204
STARLINK-33719          
1 63578U 25076K   26195.35894187  .00009738  00000+0  36291-3 0  9997
2 63578  43.0062 326.2695 0002303 289.4536  70.6067 15.27582015 71206
STARLINK-33755          
1 63579U 25076L   26195.42559465  .00010240  00000+0  38100-3 0  9994
2 63579  43.0046 325.8221 0003028 288.6741  71.3782 15.27589389 71217
STARLINK-33752          
1 63580U 25076M   26195.70000695  .00011488  00000+0  42624-3 0  9994
2 63580  43.0005 324.5254 0002147 289.3419  70.7201 15.27586156 71259
STARLINK-33714          
1 63581U 25076N   26195.41661453  .00013835  00000+0  51123-3 0  9990
2 63581  42.9993 325.8331 0001018 233.7946 126.2812 15.27587512 71216
STARLINK-33814          
1 63582U 25076P   26195.41018876  .00007876  00000+0  29542-3 0  9994
2 63582  43.0020 325.7867 0001815 282.7397  77.3251 15.27581804 71213
STARLINK-33817          
1 63583U 25076Q   26195.33837856  .00008246  00000+0  30885-3 0  9997
2 63583  43.0078 326.1117 0003355 293.3050  66.7448 15.27579750 71199
STARLINK-33820          
1 63584U 25076R   26195.39607857  .00008975  00000+0  33523-3 0  9991
2 63584  43.0023 325.6765 0001443 298.8713  61.1994 15.27583230 71211
STARLINK-33813          
1 63585U 25076S   26195.39733559  .00018380  00000+0  67502-3 0  9996
2 63585  42.9962 325.6790 0005456 141.7168 218.4072 15.27605960 71217
STARLINK-33834          
1 63586U 25076T   26195.69357986  .00007872  00000+0  29530-3 0  9999
2 63586  43.0020 324.4693 0002497 282.4247  77.6325 15.27577744 71255
