OBJECT_NAME,OBJECT_ID,EPOCH,MEAN_MOTION,ECCENTRICITY,INCLINATION,RA_OF_ASC_NODE,ARG_OF_PERICENTER,MEAN_ANOMALY,EPHEMERIS_TYPE,CLASSIFICATION_TYPE,NORAD_CAT_ID,ELEMENT_SET_NO,REV_AT_EPOCH,BSTAR,MEAN_MOTION_DOT,MEAN_MOTION_DDOT
STARLINK-11626 [DTC],2025-075J,2026-07-15T02:33:11.287296,15.70997772,.0001591,42.9998,106.1613,290.7847,69.2850,0,U,63556,999,7328,.12116E-2,.159077E-2,0
STARLINK-11668 [DTC],2025-075K,2026-07-15T03:57:05.832576,15.70853029,.0001281,43.0003,105.7372,273.0599,87.0122,0,U,63557,999,7329,.10504E-2,.136641E-2,0
STARLINK-11657 [DTC],2025-075L,2026-07-15T04:00:03.000096,15.70821901,.0001596,43.0015,105.5007,262.5578,199.3102,0,U,63558,999,597,-.10822E-4,-.1836E-4,0
STARLINK-11606 [DTC],2025-075M,2026-07-15T02:48:16.704864,15.70888996,.0003242,43.0014,105.3487,253.3577,106.6935,0,U,63559,999,7329,.91629E-3,.119087E-2,0
STARLINK-11592 [DTC],2025-075N,2026-07-15T00:08:05.790048,15.70849601,.0002101,43.0005,106.2399,213.7908,146.2826,0,U,63560,999,7327,.54703E-3,.70371E-3,0
STARLINK-32953,2025-075P,2026-07-15T04:22:04.215072,15.27589489,.000257,43.0069,270.8063,288.4867,71.5705,0,U,63561,999,7142,.26049E-3,.6914E-4,0
STARLINK-32951,2025-075Q,2026-07-14T12:34:56.267904,15.27576462,.00016268,42.9973,274.4366,276.6607,83.4059,0,U,63562,999,7133,.24258161E-3,.6418E-4,0
STARLINK-32958,2025-075R,2026-07-14T12:20:08.613312,15.27576104,.0001289,42.9969,274.3851,269.6700,90.4004,0,U,63563,999,7132,.93862E-4,.2321E-4,0
STARLINK-32928,2025-075S,2026-07-15T05:11:49.017120,15.27580343,.0001631,42.9992,270.2026,273.4572,86.6093,0,U,63564,999,7144,.37939E-3,.10192E-3,0
STARLINK-32687,2025-075T,2026-07-14T12:33:05.642208,15.27576026,.00021185,42.9986,274.4260,281.2052,78.8561,0,U,63565,999,7133,.17813213E-3,.4642E-4,0
STARLINK-32950,2025-075U,2026-07-15T05:04:24.153888,15.27582121,.0002848,43.0034,270.1063,296.8486,63.2075,0,U,63566,999,7143,.33166E-3,.8876E-4,0
STARLINK-32954,2025-075V,2026-07-15T05:22:54.632352,15.27580347,.0001179,42.9982,270.2284,266.6272,93.4445,0,U,63567,999,7143,.34128E-3,.9141E-4,0
STARLINK-32940,2025-075W,2026-07-14T12:14:35.040192,15.27576070,.00012086,42.9935,274.3247,264.8280,95.2433,0,U,63568,999,7132,-.32571531E-4,-.1158E-4,0
STARLINK-32959,2025-076A,2026-07-14T20:32:38.941728,15.27577331,.0001534,43.0008,327.5077,280.9006,79.1673,0,U,63569,999,7123,.42552E-3,.11465E-3,0
STARLINK-32956,2025-076B,2026-07-14T09:44:26.119968,15.27587387,.00027992,42.9951,329.2740,154.3889,205.7102,0,U,63570,999,7116,.44842553E-3,.12101E-3,0
STARLINK-33722,2025-076C,2026-07-14T10:05:28.391136,15.27588876,.0001283,43.0007,325.8668,249.8669,110.2045,0,U,63571,999,7120,.39915751E-3,.10741E-3,0
STARLINK-33739,2025-076D,2026-07-14T09:21:16.375968,15.27594396,.00046108,42.9951,326.4940,140.8016,219.3170,0,U,63572,999,7120,.33184761E-3,.8886E-4,0
STARLINK-33683,2025-076E,2026-07-14T09:19:25.858272,15.27587680,.00012503,43.0019,326.4922,257.6256,102.4456,0,U,63573,999,7120,.59374188E-3,.16116E-3,0
STARLINK-33732,2025-076G,2026-07-14T16:51:42.717600,15.27604075,.00016265,43.0012,324.5510,272.6107,87.4558,0,U,63575,999,7125,.44683699E-3,.12063E-3,0
STARLINK-33800,2025-076H,2026-07-14T08:23:55.322304,15.27590106,.00012366,43.0045,326.2004,266.7881,93.2829,0,U,63576,999,7120,.45049694E-3,.12159E-3,0
STARLINK-33632,2025-076J,2026-07-14T09:15:43.677216,15.27583903,.00011682,42.9982,326.4674,175.7564,184.3297,0,U,63577,999,7120,.29752167E-3,.7935E-4,0
STARLINK-33719,2025-076K,2026-07-14T08:36:52.577568,15.27582015,.0002303,43.0062,326.2695,289.4536,70.6067,0,U,63578,999,7120,.36291201E-3,.9738E-4,0
STARLINK-33755,2025-076L,2026-07-14T10:12:51.377760,15.27589389,.00030288,43.0046,325.8221,288.6741,71.3782,0,U,63579,999,7121,.38100239E-3,.1024E-3,0
STARLINK-33752,2025-076M,2026-07-14T16:48:00.600480,15.27586156,.00021479,43.0005,324.5254,289.3419,70.7201,0,U,63580,999,7125,.42623503E-3,.11488E-3,0
STARLINK-33714,2025-076N,2026-07-14T09:59:55.495392,15.27587512,.00010188,42.9993,325.8331,233.7946,126.2812,0,U,63581,999,7121,.5112286E-3,.13835E-3,0
STARLINK-33814,2025-076P,2026-07-14T09:50:40.308864,15.27581804,.00018151,43.0020,325.7867,282.7397,77.3251,0,U,63582,999,7121,.29541964E-3,.7876E-4,0
STARLINK-33817,2025-076Q,2026-07-14T08:07:15.907584,15.27579750,.00033559,43.0078,326.1117,293.3050,66.7448,0,U,63583,999,7119,.30885032E-3,.8246E-4,0
STARLINK-33820,2025-076R,2026-07-14T09:30:21.188448,15.27583230,.0001443,43.0023,325.6765,298.8713,61.1994,0,U,63584,999,7121,.3352267E-3,.8975E-4,0
STARLINK-33813,2025-076S,2026-07-14T09:32:09.794976,15.27605960,.00054566,42.9962,325.6790,141.7168,218.4072,0,U,63585,999,7121,.67501858E-3,.1838E-3,0
STARLINK-33834,2025-076T,2026-07-14T16:38:45.299904,15.27577744,.00024977,43.0020,324.4693,282.4247,77.6325,0,U,63586,999,7125,.2953008E-3,.7872E-4,0
